[{"OBJECT_NAME":"CELESTIS-02 & TAURUS R/B","OBJECT_ID":"1998-007D","EPOCH":"2026-03-04T15:04:52.795776","MEAN_MOTION":14.22451671,"ECCENTRICITY":0.0063199,"INCLINATION":108.0086,"RA_OF_ASC_NODE":121.2398,"ARG_OF_PERICENTER":310.5021,"MEAN_ANOMALY":211.8451,"EPHEMERIS_TYPE":0,"CLASSIFICATION_TYPE":"U","NORAD_CAT_ID":25160,"ELEMENT_SET_NO":999,"REV_AT_EPOCH":45564,"BSTAR":7.4264e-5,"MEAN_MOTION_DOT":3.9e-7,"MEAN_MOTION_DDOT":0}]
