CELESTIS-02 & TAURUS R/B
1 25160U 98007D   26063.62838884  .00000039  00000+0  74264-4 0  9990
2 25160 108.0086 121.2398 0063199 310.5021 211.8451 14.22451671455644
